ONEWEB-0201             
1 48241U 21031AH  22326.52700064  .00000213  00000+0  54035-3 0  9990
2 48241  87.9108 188.7387 0001599  81.2104 278.9206 13.14502491 77240
ONEWEB-0207             
1 48242U 21031AJ  22326.34939426 -.00000167  00000+0 -48499-3 0  9994
2 48242  87.9107 188.7403 0001560  69.2591 290.8706 13.14501382 77137
ONEWEB-0208             
1 48243U 21031AK  22326.17493926 -.00000016  00000+0 -78589-4 0  9993
2 48243  87.9105 188.7995 0001981  84.1874 275.9481 13.14504481 77125
ONEWEB-0200             
1 48244U 21031AL  22326.51957713  .00000056  00000+0  11545-3 0  9991
2 48244  87.9099 188.7272 0002028  84.3920 275.7441 13.14504392 77094
ONEWEB-0217             
1 48245U 21031AM  22326.53649443 -.00000196  00000+0 -56442-3 0  9994
2 48245  87.9106 188.6940 0002333  81.6944 278.4450 13.14507400 77048
ONEWEB-0211             
1 48767U 21045A   22326.53801651  .00000146  00000+0  35301-3 0  9993
2 48767  87.8975 158.4799 0001770  97.0192 263.1140 13.15550474 73141
ONEWEB-0223             
1 48768U 21045B   22326.48309340 -.00000045  00000+0 -15295-3 0  9996
2 48768  87.8981 158.5018 0001818 103.0693 257.0640 13.15545741 73127
ONEWEB-0230             
1 48769U 21045C   22326.53168563  .00000503  00000+0  13019-2 0  9991
2 48769  87.8980 158.5052 0001500  91.5637 268.5665 13.15546702 73393
ONEWEB-0237             
1 48770U 21045D   22326.52112096  .00000165  00000+0  40489-3 0  9998
2 48770  87.9189 158.4422 0001531 111.4685 248.6609 13.15548637 73112
ONEWEB-0235             
1 48771U 21045E   22326.49364628 -.00000096  00000+0 -28873-3 0  9993
2 48771  87.9104 158.4936 0001670 125.5781 234.5505 13.15547858 73109
ONEWEB-0242             
1 48772U 21045F   22326.48730996 -.00000019  00000+0 -83203-4 0  9992
2 48772  87.9057 158.4930 0001324  98.1933 261.9347 13.15550517 73149
ONEWEB-0241             
1 48773U 21045G   22326.47462835 -.00000009  00000+0 -57765-4 0  9999
2 48773  87.9047 158.4615 0002054  98.4326 261.7037 13.15546681 73050
ONEWEB-0243             
1 48774U 21045H   22326.50631686 -.00000006  00000+0 -49414-4 0  9995
2 48774  87.8982 158.4789 0001382 113.1521 246.9755 13.15548967 73089
ONEWEB-0222             
1 48775U 21045J   22326.49576811 -.00000053  00000+0 -17507-3 0  9991
2 48775  87.9001 158.5138 0001821  98.3902 261.7435 13.15548229 73123
ONEWEB-0244             
1 48776U 21045K   22326.51688595 -.00034495  00000+0 -91782-1 0  9990
2 48776  87.9045 158.4317 0000059 330.5774  29.5353 13.15717865 73695
ONEWEB-0247             
1 48777U 21045L   22326.51264075 -.00000017  00000+0 -80220-4 0  9995
2 48777  87.9052 158.4428 0001669 117.7269 242.4030 13.15551285 73138
ONEWEB-0245             
1 48778U 21045M   22326.50843116  .00000014  00000+0  28301-5 0  9992
2 48778  87.9109 158.5099 0002000  92.8220 267.3139 13.15550309 73106
ONEWEB-0229             
1 48779U 21045N   22326.50209377 -.00000015  00000+0 -73667-4 0  9995
2 48779  87.9107 158.4981 0001756 102.0187 258.1140 13.15550071 73136
ONEWEB-0228             
1 48780U 21045P   22326.51682688 -.00000046  00000+0 -15527-3 0  9992
2 48780  87.9084 158.4843 0001435  95.1546 264.9748 13.15547724 73055
ONEWEB-0232             
1 48781U 21045Q   22326.51054424  .00000082  00000+0  18479-3 0  9991
2 48781  87.8992 158.5149 0001857  85.1116 275.0227 13.15554199 73377
ONEWEB-0231             
1 48782U 21045R   22326.48942551 -.00000088  00000+0 -26724-3 0  9995
2 48782  87.9084 158.4294 0001559 105.7710 254.3593 13.15546013 73067
ONEWEB-0234             
1 48783U 21045S   22326.51478075  .00000109  00000+0  25518-3 0  9997
2 48783  87.9056 158.4886 0002006  83.3923 276.7435 13.15548683 73203
ONEWEB-0238             
1 48784U 21045T   22326.52641462  .00000156  00000+0  38012-3 0  9996
2 48784  87.8992 158.5033 0001810  84.0327 276.1010 13.15547669 73100
ONEWEB-0240             
1 48785U 21045U   22326.47252822  .00000025  00000+0  31168-4 0  9990
2 48785  87.9053 158.4824 0002108 102.3311 257.8055 13.15548217 73122
ONEWEB-0246             
1 48786U 21045V   22326.54435620  .00000089  00000+0  20298-3 0  9999
2 48786  87.9045 158.4665 0001541 105.6372 254.4928 13.15549325 73000
ONEWEB-0210             
1 48787U 21045W   22326.51899751  .00000181  00000+0  44571-3 0  9999
2 48787  87.9052 158.4824 0001111 123.6270 236.4967 13.15549374 73047
ONEWEB-0214             
1 48788U 21045X   22326.52955474  .00000141  00000+0  34014-3 0  9993
2 48788  87.8984 158.4771 0000831 126.6371 233.4836 13.15551012 73016
ONEWEB-0221             
1 48789U 21045Y   22326.53589513  .00000157  00000+0  38284-3 0  9992
2 48789  87.9049 158.4877 0001629  99.5520 260.5795 13.15549903 73108
ONEWEB-0213             
1 48790U 21045Z   22326.52323007  .00000166  00000+0  40626-3 0  9990
2 48790  87.8992 158.5022 0001509 106.0211 254.1086 13.15548288 73160
ONEWEB-0212             
1 48791U 21045AA  22326.50421986 -.00000096  00000+0 -28965-3 0  9990
2 48791  87.9004 158.5352 0001630  78.0291 282.1022 13.15549300 73159
ONEWEB-0227             
1 48792U 21045AB  22326.49787298 -.00000017  00000+0 -78577-4 0  9998
2 48792  87.9006 158.5500 0001730  94.0550 266.0778 13.15549015 73101
ONEWEB-0226             
1 48793U 21045AC  22326.49150597 -.00000072  00000+0 -22663-3 0  9990
2 48793  87.8980 158.5136 0001327 121.0122 239.1139 13.15542447 73075
ONEWEB-0224             
1 48794U 21045AD  22326.53378593  .00000180  00000+0  44368-3 0  9998
2 48794  87.9043 158.4544 0001966  81.8850 278.2503 13.15547535 73004
ONEWEB-0233             
1 48795U 21045AE  22326.53242198  .00000138  00000+0  32871-3 0  9999
2 48795  87.9112 158.5222 0001936  94.3428 265.7923 13.16197000 73010
ONEWEB-0190             
1 48796U 21045AF  22326.52533689  .00000172  00000+0  42165-3 0  9992
2 48796  87.9002 158.5127 0001951 129.7522 230.3780 13.15550775 73096
ONEWEB-0236             
1 48797U 21045AG  22326.54223613  .00000124  00000+0  29436-3 0  9991
2 48797  87.8994 158.4779 0001566  91.4571 268.6739 13.15550335 72986
ONEWEB-0248             
1 48798U 21045AH  22326.47885029 -.00000120  00000+0 -35226-3 0  9991
2 48798  87.9052 158.4960 0002330 107.0526 253.0860 13.15543355 73134
ONEWEB-0225             
1 48799U 21045AJ  22326.49998309 -.00000016  00000+0 -77801-4 0  9990
2 48799  87.8997 158.5233 0001915 111.1034 249.0301 13.15549056 73144
ONEWEB-0215             
1 48800U 21045AK  22326.54646051  .00000052  00000+0  10380-3 0  9999
2 48800  87.9049 158.4738 0002273 116.5423 243.5941 13.15547505 73027
ONEWEB-0216             
1 48801U 21045AL  22326.48097533 -.00000061  00000+0 -19523-3 0  9998
2 48801  87.8993 158.5282 0001158  92.7741 267.3522 13.15548690 73024
ONEWEB-0239             
1 48802U 21045AM  22326.48518976 -.00000107  00000+0 -31875-3 0  9993
2 48802  87.8994 158.5330 0002326 113.2489 246.8886 13.15550484 73069
ONEWEB-0249             
1 48967U 21060A   22326.54022150  .00000039  00000+0  67371-4 0  9996
2 48967  87.9033 128.1741 0001510  90.0204 270.1100 13.16593223 68204
ONEWEB-0250             
1 48968U 21060B   22326.46843788  .00000023  00000+0  27242-4 0  9992
2 48968  87.9034 128.1938 0001843 103.2795 256.8542 13.16596270 68177
ONEWEB-0252             
1 48970U 21060D   22326.49589320 -.00000031  00000+0 -11471-3 0  9994
2 48970  87.9039 128.1724 0001473 101.3706 258.7590 13.16593226 68248
ONEWEB-0253             
1 48971U 21060E   22326.48534171 -.00000056  00000+0 -18060-3 0  9996
2 48971  87.9019 128.1811 0001652 111.0834 249.0473 13.16593431 68176
ONEWEB-0254             
1 48972U 21060F   22326.49377810 -.00000064  00000+0 -20207-3 0  9998
2 48972  87.9042 128.1603 0001658 109.2697 250.8614 13.16592996 69458
ONEWEB-0255             
1 48973U 21060G   22326.53178441  .00000071  00000+0  15298-3 0  9993
2 48973  87.9032 128.2230 0001590  95.7909 264.3403 13.16594200 69541
ONEWEB-0256             
1 48974U 21060H   22326.48111868 -.00000039  00000+0 -13604-3 0  9993
2 48974  87.9017 128.1747 0001121  87.8260 272.3000 13.16593964 69503
ONEWEB-0257             
1 48975U 21060J   22326.51489303 -.00000030  00000+0 -11164-3 0  9990
2 48975  87.9025 128.2151 0001331  99.3854 260.7427 13.16593385 69469
ONEWEB-0258             
1 48976U 21060K   22326.51700174 -.00000030  00000+0 -11203-3 0  9997
2 48976  87.9031 128.2229 0001634  96.2247 263.9071 13.16595648 68183
ONEWEB-0259             
1 48977U 21060L   22326.51067591  .00000038  00000+0  64542-4 0  9998
2 48977  87.9034 128.2028 0001872 100.6416 259.4925 13.16593857 69501
ONEWEB-0260             
1 48978U 21060M   22326.50432957  .00000001  00000+0 -29856-4 0  9990
2 48978  87.9020 128.1875 0000651 112.8329 247.2871 13.16591592 69473
ONEWEB-0261             
1 48979U 21060N   22326.47053983  .00000082  00000+0  18132-3 0  9997
2 48979  87.9026 128.2054 0001381 108.3407 251.7874 13.16591944 68246
ONEWEB-0262             
1 48980U 21060P   22326.52754972  .00000095  00000+0  21503-3 0  9991
2 48980  87.9044 128.1655 0002149 107.5626 252.5740 13.16594075 69511
ONEWEB-0263             
1 48981U 21060Q   22326.48321856 -.00000042  00000+0 -14275-3 0  9990
2 48981  87.9046 128.1770 0001867 115.8007 244.3317 13.16595263 69477
ONEWEB-0264             
1 48982U 21060R   22326.52013728  .00000049  00000+0  94417-4 0  9994
2 48982  87.9059 128.1416 0001544  96.6362 263.4945 13.16589901 69472
ONEWEB-0266             
1 48984U 21060T   22326.46633176  .00000166  00000+0  40024-3 0  9998
2 48984  87.9041 128.1875 0001633  90.5926 269.5392 13.16595994 68169
ONEWEB-0267             
1 48985U 21060U   22326.47688753  .00000043  00000+0  78718-4 0  9997
2 48985  87.9043 128.1832 0001416 117.2307 242.8969 13.16594080 68174
ONEWEB-0268             
1 48986U 21060V   22326.52124015 -.00003165  00000+0 -83191-2 0  9999
2 48986  87.9040 128.1788 0001338  92.1806 267.9478 13.16572204 69730
